{"type": "FeatureCollection", "features": [ {"type": "Feature", "properties": {"norad_id": 36163, "name": "FENGYUN 1C DEB", "group": "fengyun-1c-debris", "lat": -58.84289393459954, "lon": -141.18653622722547, "alt_km": 705.3314326748732, "timestamp": "2025-12-24T07:45:06.487824+00:00", "meta": {"OBJECT_NAME": "FENGYUN 1C DEB", "OBJECT_ID": "1999-025DSL", "EPOCH": "2025-12-19T12:50:06.955008", "MEAN_MOTION": 14.59242955, "ECCENTRICITY": 0.0039086, "INCLINATION": 99.0787, "RA_OF_ASC_NODE": 198.2455, "ARG_OF_PERICENTER": 50.867, "MEAN_ANOMALY": 309.5991, "EPHEMERIS_TYPE": 0, "CLASSIFICATION_TYPE": "U", "NORAD_CAT_ID": 36163, "ELEMENT_SET_NO": 999, "REV_AT_EPOCH": 89286, "BSTAR": 0.0021304, "MEAN_MOTION_DOT": 0.0001012, "MEAN_MOTION_DDOT": 0}, "tle": {"line1": "1 36163U 99025DSL 25353.53480272  .00010120  00000+0  21304-2 0  9998", "line2": "2 36163  99.0787 198.2455 0039086  50.8670 309.5991 14.59242955892862"}}, "geometry": {"type": "Point", "coordinates": [-141.18653622722547, -58.84289393459954]}}, {"type": "Feature", "properties": {"norad_id": 36167, "name": "FENGYUN 1C DEB", "group": "fengyun-1c-debris", "lat": -17.515988284637228, "lon": -91.17976723253051, "alt_km": 766.1323139853803, "timestamp": "2025-12-24T07:45:06.487834+00:00", "meta": {"OBJECT_NAME": "FENGYUN 1C DEB", "OBJECT_ID": "1999-025DSQ", "EPOCH": "2025-12-21T23:29:57.430752", "MEAN_MOTION": 14.49314917, "ECCENTRICITY": 0.00688049, "INCLINATION": 98.8145, "RA_OF_ASC_NODE": 263.5651, "ARG_OF_PERICENTER": 216.098, "MEAN_ANOMALY": 143.5557, "EPHEMERIS_TYPE": 0, "CLASSIFICATION_TYPE": "U", "NORAD_CAT_ID": 36167, "ELEMENT_SET_NO": 999, "REV_AT_EPOCH": 67413, "BSTAR": 0.00094360862, "MEAN_MOTION_DOT": 3.662e-05, "MEAN_MOTION_DDOT": 0}, "tle": {"line1": "1 36167U 99025DSQ 25355.97913693  .00003662  00000+0  94361-3 0  9997", "line2": "2 36167  98.8145 263.5651 0068804 216.0980 143.5557 14.49314917674134"}}, "geometry": {"type": "Point", "coordinates": [-91.17976723253051, -17.515988284637228]}}, {"type": "Feature", "properties": {"norad_id": 36173, "name": "FENGYUN 1C DEB", "group": "fengyun-1c-debris", "lat": 65.57415567756752, "lon": 153.25566217168495, "alt_km": 717.3264939174942, "timestamp": "2025-12-24T07:45:06.487844+00:00", "meta": {"OBJECT_NAME": "FENGYUN 1C DEB", "OBJECT_ID": "1999-025DSW", "EPOCH": "2025-12-22T02:59:15.796896", "MEAN_MOTION": 14.25182833, "ECCENTRICITY": 0.01475243, "INCLINATION": 98.2146, "RA_OF_ASC_NODE": 312.65, "ARG_OF_PERICENTER": 157.5208, "MEAN_ANOMALY": 203.2527, "EPHEMERIS_TYPE": 0, "CLASSIFICATION_TYPE": "U", "NORAD_CAT_ID": 36173, "ELEMENT_SET_NO": 999, "REV_AT_EPOCH": 59224, "BSTAR": 0.00017937593, "MEAN_MOTION_DOT": 4.32e-06, "MEAN_MOTION_DDOT": 0}, "tle": {"line1": "1 36173U 99025DSW 25356.12448839  .00000432  00000+0  17938-3 0  9994", "line2": "2 36173  98.2146 312.6500 0147524 157.5208 203.2527 14.25182833592240"}}, "geometry": {"type": "Point", "coordinates": [153.25566217168495, 65.57415567756752]}}, {"type": "Feature", "properties": {"norad_id": 36180, "name": "FENGYUN 1C DEB", "group": "fengyun-1c-debris", "lat": -79.86422390220565, "lon": -174.8791566769612, "alt_km": 834.4426833268262, "timestamp": "2025-12-24T07:45:06.487854+00:00", "meta": {"OBJECT_NAME": "FENGYUN 1C DEB", "OBJECT_ID": "1999-025DTD", "EPOCH": "2025-12-05T21:21:22.276224", "MEAN_MOTION": 14.20680074, "ECCENTRICITY": 0.02106275, "INCLINATION": 98.4572, "RA_OF_ASC_NODE": 43.7979, "ARG_OF_PERICENTER": 50.8055, "MEAN_ANOMALY": 311.1621, "EPHEMERIS_TYPE": 0, "CLASSIFICATION_TYPE": "U", "NORAD_CAT_ID": 36180, "ELEMENT_SET_NO": 999, "REV_AT_EPOCH": 70486, "BSTAR": 0.00091841135, "MEAN_MOTION_DOT": 2.432e-05, "MEAN_MOTION_DDOT": 0}, "tle": {"line1": "1 36180U 99025DTD 25339.88984116  .00002432  00000+0  91841-3 0  9996", "line2": "2 36180  98.4572  43.7979 0210627  50.8055 311.1621 14.20680074704867"}}, "geometry": {"type": "Point", "coordinates": [-174.8791566769612, -79.86422390220565]}}, {"type": "Feature", "properties": {"norad_id": 36182, "name": "FENGYUN 1C DEB", "group": "fengyun-1c-debris", "lat": 9.121099022245511, "lon": -74.99556457831847, "alt_km": 764.1151085938554, "timestamp": "2025-12-24T07:45:06.487864+00:00", "meta": {"OBJECT_NAME": "FENGYUN 1C DEB", "OBJECT_ID": "1999-025DTF", "EPOCH": "2025-12-23T13:17:56.298048", "MEAN_MOTION": 14.34804109, "ECCENTRICITY": 0.00224297, "INCLINATION": 99.0895, "RA_OF_ASC_NODE": 285.6686, "ARG_OF_PERICENTER": 46.0799, "MEAN_ANOMALY": 314.2231, "EPHEMERIS_TYPE": 0, "CLASSIFICATION_TYPE": "U", "NORAD_CAT_ID": 36182, "ELEMENT_SET_NO": 999, "REV_AT_EPOCH": 88112, "BSTAR": 0.001500182, "MEAN_MOTION_DOT": 4.222e-05, "MEAN_MOTION_DDOT": 0}, "tle": {"line1": "1 36182U 99025DTF 25357.55412382  .00004222  00000+0  15002-2 0  9996", "line2": "2 36182  99.0895 285.6686 0022429  46.0799 314.2231 14.34804109881127"}}, "geometry": {"type": "Point", "coordinates": [-74.99556457831847, 9.121099022245511]}}, {"type": "Feature", "properties": {"norad_id": 36186, "name": "FENGYUN 1C DEB", "group": "fengyun-1c-debris", "lat": -81.00693408017021, "lon": -45.992880271880225, "alt_km": 521.3977102479012, "timestamp": "2025-12-24T07:45:06.487874+00:00", "meta": {"OBJECT_NAME": "FENGYUN 1C DEB", "OBJECT_ID": "1999-025DTK", "EPOCH": "2025-12-15T21:11:23.031744", "MEAN_MOTION": 15.12863238, "ECCENTRICITY": 0.00117449, "INCLINATION": 98.9868, "RA_OF_ASC_NODE": 213.7545, "ARG_OF_PERICENTER": 332.6772, "MEAN_ANOMALY": 45.2682, "EPHEMERIS_TYPE": 0, "CLASSIFICATION_TYPE": "U", "NORAD_CAT_ID": 36186, "ELEMENT_SET_NO": 999, "REV_AT_EPOCH": 61618, "BSTAR": 0.0071053274, "MEAN_MOTION_DOT": 0.00127217, "MEAN_MOTION_DDOT": 0}, "tle": {"line1": "1 36186U 99025DTK 25349.88290546  .00127217  00000+0  71053-2 0  9991", "line2": "2 36186  98.9868 213.7545 0011744 332.6772  45.2682 15.12863238616186"}}, "geometry": {"type": "Point", "coordinates": [-45.992880271880225, -81.00693408017021]}}, {"type": "Feature", "properties": {"norad_id": 36188, "name": "FENGYUN 1C DEB", "group": "fengyun-1c-debris", "lat": 75.81114054904768, "lon": 62.47854777634568, "alt_km": 716.4631862889728, "timestamp": "2025-12-24T07:45:06.487885+00:00", "meta": {"OBJECT_NAME": "FENGYUN 1C DEB", "OBJECT_ID": "1999-025DTM", "EPOCH": "2025-12-23T18:14:27.373920", "MEAN_MOTION": 14.60921287, "ECCENTRICITY": 0.00481334, "INCLINATION": 98.5852, "RA_OF_ASC_NODE": 98.5873, "ARG_OF_PERICENTER": 270.3481, "MEAN_ANOMALY": 89.2203, "EPHEMERIS_TYPE": 0, "CLASSIFICATION_TYPE": "U", "NORAD_CAT_ID": 36188, "ELEMENT_SET_NO": 999, "REV_AT_EPOCH": 88213, "BSTAR": 0.0025681041, "MEAN_MOTION_DOT": 0.00012749, "MEAN_MOTION_DDOT": 0}, "tle": {"line1": "1 36188U 99025DTM 25357.76003905  .00012749  00000+0  25681-2 0  9999", "line2": "2 36188  98.5852  98.5873 0048133 270.3481  89.2203 14.60921287882135"}}, "geometry": {"type": "Point", "coordinates": [62.47854777634568, 75.81114054904768]}}, {"type": "Feature", "properties": {"norad_id": 36198, "name": "FENGYUN 1C DEB", "group": "fengyun-1c-debris", "lat": 59.65879460113615, "lon": -137.82925062924474, "alt_km": 804.1409443147622, "timestamp": "2025-12-24T07:45:06.487895+00:00", "meta": {"OBJECT_NAME": "FENGYUN 1C DEB", "OBJECT_ID": "1999-025DTX", "EPOCH": "2025-12-22T07:26:26.192832", "MEAN_MOTION": 14.07946934, "ECCENTRICITY": 0.0096281, "INCLINATION": 98.6207, "RA_OF_ASC_NODE": 25.227, "ARG_OF_PERICENTER": 88.4857, "MEAN_ANOMALY": 272.734, "EPHEMERIS_TYPE": 0, "CLASSIFICATION_TYPE": "U", "NORAD_CAT_ID": 36198, "ELEMENT_SET_NO": 999, "REV_AT_EPOCH": 63722, "BSTAR": 0.0015520227, "MEAN_MOTION_DOT": 2.711e-05, "MEAN_MOTION_DDOT": 0}, "tle": {"line1": "1 36198U 99025DTX 25356.31002538  .00002711  00000+0  15520-2 0  9990", "line2": "2 36198  98.6207  25.2270 0096281  88.4857 272.7340 14.07946934637227"}}, "geometry": {"type": "Point", "coordinates": [-137.82925062924474, 59.65879460113615]}}, {"type": "Feature", "properties": {"norad_id": 36199, "name": "FENGYUN 1C DEB", "group": "fengyun-1c-debris", "lat": 25.017219410285463, "lon": -157.19255364000662, "alt_km": 825.9256754843045, "timestamp": "2025-12-24T07:45:06.487905+00:00", "meta": {"OBJECT_NAME": "FENGYUN 1C DEB", "OBJECT_ID": "1999-025DTY", "EPOCH": "2025-12-23T19:16:49.178208", "MEAN_MOTION": 14.29664994, "ECCENTRICITY": 0.00924878, "INCLINATION": 98.2888, "RA_OF_ASC_NODE": 18.4119, "ARG_OF_PERICENTER": 35.0012, "MEAN_ANOMALY": 325.7203, "EPHEMERIS_TYPE": 0, "CLASSIFICATION_TYPE": "U", "NORAD_CAT_ID": 36199, "ELEMENT_SET_NO": 999, "REV_AT_EPOCH": 65138, "BSTAR": 0.00024305754, "MEAN_MOTION_DOT": 6.12e-06, "MEAN_MOTION_DDOT": 0}, "tle": {"line1": "1 36199U 99025DTY 25357.80334697  .00000612  00000+0  24306-3 0  9991", "line2": "2 36199  98.2888  18.4119 0092487  35.0012 325.7203 14.29664994651387"}}, "geometry": {"type": "Point", "coordinates": [-157.19255364000662, 25.017219410285463]}}, {"type": "Feature", "properties": {"norad_id": 36200, "name": "FENGYUN 1C DEB", "group": "fengyun-1c-debris", "lat": 75.13795683687624, "lon": 35.21166927504482, "alt_km": 695.7969486246047, "timestamp": "2025-12-24T07:45:06.487915+00:00", "meta": {"OBJECT_NAME": "FENGYUN 1C DEB", "OBJECT_ID": "1999-025DTZ", "EPOCH": "2025-12-18T11:29:22.430112", "MEAN_MOTION": 14.58878702, "ECCENTRICITY": 0.00334665, "INCLINATION": 99.3866, "RA_OF_ASC_NODE": 67.1749, "ARG_OF_PERICENTER": 349.3175, "MEAN_ANOMALY": 10.7306, "EPHEMERIS_TYPE": 0, "CLASSIFICATION_TYPE": "U", "NORAD_CAT_ID": 36200, "ELEMENT_SET_NO": 999, "REV_AT_EPOCH": 73444, "BSTAR": 0.0030254182, "MEAN_MOTION_DOT": 0.00014247, "MEAN_MOTION_DDOT": 0}, "tle": {"line1": "1 36200U 99025DTZ 25352.47873183  .00014247  00000+0  30254-2 0  9997", "line2": "2 36200  99.3866  67.1749 0033466 349.3175  10.7306 14.58878702734441"}}, "geometry": {"type": "Point", "coordinates": [35.21166927504482, 75.13795683687624]}}]}